CCSDS_OMM_VERS = 2.0
CREATION_DATE  = 
ORIGINATOR     = 

OBJECT_NAME    = STARLINK-36708
OBJECT_ID      = 2026-025W
CENTER_NAME    = EARTH
REF_FRAME      = TEME
TIME_SYSTEM    = UTC
MEAN_ELEMENT_THEORY = SGP/SGP4

EPOCH          = 2026-02-15T22:00:01.999584
MEAN_MOTION    = 16.04767591
ECCENTRICITY   = .00013411
INCLINATION    = 97.2767
RA_OF_ASC_NODE = 157.2569
ARG_OF_PERICENTER = 65.8643
MEAN_ANOMALY   = 226.0498

EPHEMERIS_TYPE = 0
CLASSIFICATION_TYPE = U
NORAD_CAT_ID   = 67713
ELEMENT_SET_NO = 999
REV_AT_EPOCH   = 240
BSTAR          = -.18513831E-2
MEAN_MOTION_DOT = -.1232434E-1
MEAN_MOTION_DDOT = .5099431E-3

CCSDS_OMM_VERS = 2.0
CREATION_DATE  = 
ORIGINATOR     = 

OBJECT_NAME    = STARLINK-36702
OBJECT_ID      = 2026-025X
CENTER_NAME    = EARTH
REF_FRAME      = TEME
TIME_SYSTEM    = UTC
MEAN_ELEMENT_THEORY = SGP/SGP4

EPOCH          = 2026-02-15T22:00:01.999584
MEAN_MOTION    = 16.04577092
ECCENTRICITY   = .0001428
INCLINATION    = 97.2766
RA_OF_ASC_NODE = 157.2554
ARG_OF_PERICENTER = 64.3073
MEAN_ANOMALY   = 224.4482

EPHEMERIS_TYPE = 0
CLASSIFICATION_TYPE = U
NORAD_CAT_ID   = 67714
ELEMENT_SET_NO = 999
REV_AT_EPOCH   = 214
BSTAR          = -.18813114E-2
MEAN_MOTION_DOT = -.1238069E-1
MEAN_MOTION_DDOT = .51309207E-3

CCSDS_OMM_VERS = 2.0
CREATION_DATE  = 
ORIGINATOR     = 

OBJECT_NAME    = STARLINK-36718
OBJECT_ID      = 2026-025Y
CENTER_NAME    = EARTH
REF_FRAME      = TEME
TIME_SYSTEM    = UTC
MEAN_ELEMENT_THEORY = SGP/SGP4

EPOCH          = 2026-02-15T22:00:01.999584
MEAN_MOTION    = 16.05221786
ECCENTRICITY   = .00013069
INCLINATION    = 97.2767
RA_OF_ASC_NODE = 157.2601
ARG_OF_PERICENTER = 67.1005
MEAN_ANOMALY   = 232.1905

EPHEMERIS_TYPE = 0
CLASSIFICATION_TYPE = U
NORAD_CAT_ID   = 67715
ELEMENT_SET_NO = 999
REV_AT_EPOCH   = 234
BSTAR          = -.17578642E-2
MEAN_MOTION_DOT = -.1202987E-1
MEAN_MOTION_DDOT = .49031152E-3

CCSDS_OMM_VERS = 2.0
CREATION_DATE  = 
ORIGINATOR     = 

OBJECT_NAME    = STARLINK-36715
OBJECT_ID      = 2026-025Z
CENTER_NAME    = EARTH
REF_FRAME      = TEME
TIME_SYSTEM    = UTC
MEAN_ELEMENT_THEORY = SGP/SGP4

EPOCH          = 2026-02-15T22:00:01.999584
MEAN_MOTION    = 16.05015105
ECCENTRICITY   = .00013079
INCLINATION    = 97.2766
RA_OF_ASC_NODE = 157.2587
ARG_OF_PERICENTER = 66.1808
MEAN_ANOMALY   = 229.6264

EPHEMERIS_TYPE = 0
CLASSIFICATION_TYPE = U
NORAD_CAT_ID   = 67716
ELEMENT_SET_NO = 999
REV_AT_EPOCH   = 240
BSTAR          = -.18091982E-2
MEAN_MOTION_DOT = -.1222541E-1
MEAN_MOTION_DDOT = .50389518E-3

CCSDS_OMM_VERS = 2.0
CREATION_DATE  = 
ORIGINATOR     = 

OBJECT_NAME    = STARLINK-36385
OBJECT_ID      = 2026-025AA
CENTER_NAME    = EARTH
REF_FRAME      = TEME
TIME_SYSTEM    = UTC
MEAN_ELEMENT_THEORY = SGP/SGP4

EPOCH          = 2026-02-15T22:00:01.999584
MEAN_MOTION    = 16.04343102
ECCENTRICITY   = .00013418
INCLINATION    = 97.2770
RA_OF_ASC_NODE = 157.2541
ARG_OF_PERICENTER = 69.1538
MEAN_ANOMALY   = 215.8650

EPHEMERIS_TYPE = 0
CLASSIFICATION_TYPE = U
NORAD_CAT_ID   = 67717
ELEMENT_SET_NO = 999
REV_AT_EPOCH   = 240
BSTAR          = -.19288018E-2
MEAN_MOTION_DOT = -.1251494E-1
MEAN_MOTION_DDOT = .52196969E-3

CCSDS_OMM_VERS = 2.0
CREATION_DATE  = 
ORIGINATOR     = 

OBJECT_NAME    = CZ-2F DEB
OBJECT_ID      = 2026-024E
CENTER_NAME    = EARTH
REF_FRAME      = TEME
TIME_SYSTEM    = UTC
MEAN_ELEMENT_THEORY = SGP/SGP4

EPOCH          = 2026-02-15T19:02:57.631776
MEAN_MOTION    = 15.15882691
ECCENTRICITY   = .02636975
INCLINATION    = 50.3141
RA_OF_ASC_NODE = 125.5772
ARG_OF_PERICENTER = 193.9711
MEAN_ANOMALY   = 165.3850

EPHEMERIS_TYPE = 0
CLASSIFICATION_TYPE = U
NORAD_CAT_ID   = 67718
ELEMENT_SET_NO = 999
REV_AT_EPOCH   = 130
BSTAR          = .52870239E-2
MEAN_MOTION_DOT = .261907E-2
MEAN_MOTION_DDOT = 0

CCSDS_OMM_VERS = 2.0
CREATION_DATE  = 
ORIGINATOR     = 

OBJECT_NAME    = CZ-2F DEB
OBJECT_ID      = 2026-024F
CENTER_NAME    = EARTH
REF_FRAME      = TEME
TIME_SYSTEM    = UTC
MEAN_ELEMENT_THEORY = SGP/SGP4

EPOCH          = 2026-02-15T16:49:22.207008
MEAN_MOTION    = 14.96645132
ECCENTRICITY   = .03361721
INCLINATION    = 49.7911
RA_OF_ASC_NODE = 127.1901
ARG_OF_PERICENTER = 183.3915
MEAN_ANOMALY   = 176.4743

EPHEMERIS_TYPE = 0
CLASSIFICATION_TYPE = U
NORAD_CAT_ID   = 67719
ELEMENT_SET_NO = 999
REV_AT_EPOCH   = 94
BSTAR          = .50719342E-2
MEAN_MOTION_DOT = .196813E-2
MEAN_MOTION_DDOT = 0

CCSDS_OMM_VERS = 2.0
CREATION_DATE  = 
ORIGINATOR     = 

OBJECT_NAME    = CZ-2F DEB
OBJECT_ID      = 2026-024G
CENTER_NAME    = EARTH
REF_FRAME      = TEME
TIME_SYSTEM    = UTC
MEAN_ELEMENT_THEORY = SGP/SGP4

EPOCH          = 2026-02-15T15:35:00.625056
MEAN_MOTION    = 14.93954429
ECCENTRICITY   = .0347068
INCLINATION    = 49.8305
RA_OF_ASC_NODE = 127.5934
ARG_OF_PERICENTER = 179.8335
MEAN_ANOMALY   = 180.2781

EPHEMERIS_TYPE = 0
CLASSIFICATION_TYPE = U
NORAD_CAT_ID   = 67720
ELEMENT_SET_NO = 999
REV_AT_EPOCH   = 125
BSTAR          = .528E-2
MEAN_MOTION_DOT = .199794E-2
MEAN_MOTION_DDOT = 0

CCSDS_OMM_VERS = 2.0
CREATION_DATE  = 
ORIGINATOR     = 

OBJECT_NAME    = 2026-027A
OBJECT_ID      = 2026-027A
CENTER_NAME    = EARTH
REF_FRAME      = TEME
TIME_SYSTEM    = UTC
MEAN_ELEMENT_THEORY = SGP/SGP4

EPOCH          = 2026-02-15T22:37:51.282624
MEAN_MOTION    = 15.17273827
ECCENTRICITY   = .00091491
INCLINATION    = 97.4876
RA_OF_ASC_NODE = 176.1969
ARG_OF_PERICENTER = 276.2398
MEAN_ANOMALY   = 83.7793

EPHEMERIS_TYPE = 0
CLASSIFICATION_TYPE = U
NORAD_CAT_ID   = 67746
ELEMENT_SET_NO = 999
REV_AT_EPOCH   = 56
BSTAR          = .46326835E-3
MEAN_MOTION_DOT = .9172E-4
MEAN_MOTION_DDOT = 0

CCSDS_OMM_VERS = 2.0
CREATION_DATE  = 
ORIGINATOR     = 

OBJECT_NAME    = 2026-027B
OBJECT_ID      = 2026-027B
CENTER_NAME    = EARTH
REF_FRAME      = TEME
TIME_SYSTEM    = UTC
MEAN_ELEMENT_THEORY = SGP/SGP4

EPOCH          = 2026-02-15T22:37:30.129312
MEAN_MOTION    = 15.17375258
ECCENTRICITY   = .00093262
INCLINATION    = 97.4871
RA_OF_ASC_NODE = 176.1968
ARG_OF_PERICENTER = 278.9429
MEAN_ANOMALY   = 81.0749

EPHEMERIS_TYPE = 0
CLASSIFICATION_TYPE = U
NORAD_CAT_ID   = 67747
ELEMENT_SET_NO = 999
REV_AT_EPOCH   = 56
BSTAR          = .45770102E-3
MEAN_MOTION_DOT = .9088E-4
MEAN_MOTION_DDOT = 0

CCSDS_OMM_VERS = 2.0
CREATION_DATE  = 
ORIGINATOR     = 

OBJECT_NAME    = 2027-027C
OBJECT_ID      = 2027-027C
CENTER_NAME    = EARTH
REF_FRAME      = TEME
TIME_SYSTEM    = UTC
MEAN_ELEMENT_THEORY = SGP/SGP4

EPOCH          = 2026-02-15T22:36:59.749344
MEAN_MOTION    = 15.17510176
ECCENTRICITY   = .00097863
INCLINATION    = 97.4882
RA_OF_ASC_NODE = 176.1979
ARG_OF_PERICENTER = 282.1519
MEAN_ANOMALY   = 77.8618

EPHEMERIS_TYPE = 0
CLASSIFICATION_TYPE = U
NORAD_CAT_ID   = 67748
ELEMENT_SET_NO = 999
REV_AT_EPOCH   = 56
BSTAR          = .30936386E-3
MEAN_MOTION_DOT = .6142E-4
MEAN_MOTION_DDOT = 0

CCSDS_OMM_VERS = 2.0
CREATION_DATE  = 
ORIGINATOR     = 

OBJECT_NAME    = 2026-027D
OBJECT_ID      = 2026-027D
CENTER_NAME    = EARTH
REF_FRAME      = TEME
TIME_SYSTEM    = UTC
MEAN_ELEMENT_THEORY = SGP/SGP4

EPOCH          = 2026-02-15T22:36:30.707712
MEAN_MOTION    = 15.17664813
ECCENTRICITY   = .00095739
INCLINATION    = 97.4878
RA_OF_ASC_NODE = 176.1982
ARG_OF_PERICENTER = 286.3995
MEAN_ANOMALY   = 73.6186

EPHEMERIS_TYPE = 0
CLASSIFICATION_TYPE = U
NORAD_CAT_ID   = 67749
ELEMENT_SET_NO = 999
REV_AT_EPOCH   = 51
BSTAR          = .51633326E-3
MEAN_MOTION_DOT = .10348E-3
MEAN_MOTION_DDOT = 0

