STARLINK-36708          
1 67713U 26025W   26046.91668981 -.01232434  50994-3 -18514-2 0  9997
2 67713  97.2767 157.2569 0001341  65.8643 226.0498 16.04767591  2403
STARLINK-36702          
1 67714U 26025X   26046.91668981 -.01238069  51309-3 -18813-2 0  9991
2 67714  97.2766 157.2554 0001428  64.3073 224.4482 16.04577092  2145
STARLINK-36718          
1 67715U 26025Y   26046.91668981 -.01202987  49031-3 -17579-2 0  9999
2 67715  97.2767 157.2601 0001306  67.1005 232.1905 16.05221786  2346
STARLINK-36715          
1 67716U 26025Z   26046.91668981 -.01222541  50390-3 -18092-2 0  9999
2 67716  97.2766 157.2587 0001307  66.1808 229.6264 16.05015105  2402
STARLINK-36385          
1 67717U 26025AA  26046.91668981 -.01251494  52197-3 -19288-2 0  9994
2 67717  97.2770 157.2541 0001341  69.1538 215.8650 16.04343102  2405
CZ-2F DEB               
1 67718U 26024E   26046.79372259  .00261907  00000+0  52870-2 0  9993
2 67718  50.3141 125.5772 0263697 193.9711 165.3850 15.15882691  1306
CZ-2F DEB               
1 67719U 26024F   26046.70095147  .00196813  00000+0  50719-2 0  9996
2 67719  49.7911 127.1901 0336172 183.3915 176.4743 14.96645132   942
CZ-2F DEB               
1 67720U 26024G   26046.64931279  .00199794  00000+0  52800-2 0  9990
2 67720  49.8305 127.5934 0347068 179.8335 180.2781 14.93954429  1253
2026-027A               
1 67746U 26027A   26046.94295466  .00009172  00000+0  46327-3 0  9993
2 67746  97.4876 176.1969 0009149 276.2398  83.7793 15.17273827   563
2026-027B               
1 67747U 26027B   26046.94270983  .00009088  00000+0  45770-3 0  9998
2 67747  97.4871 176.1968 0009326 278.9429  81.0749 15.17375258   562
2027-027C               
1 67748U 27027C   26046.94235821  .00006142  00000+0  30936-3 0  9998
2 67748  97.4882 176.1979 0009786 282.1519  77.8618 15.17510176   562
2026-027D               
1 67749U 26027D   26046.94202208  .00010348  00000+0  51633-3 0  9991
2 67749  97.4878 176.1982 0009573 286.3995  73.6186 15.17664813   517
